[
  {
    "COMMENT": "GENERATED VIA SPACETRACK.ORG API",
    "ORIGINATOR": "18 SPCS",
    "NORAD_CAT_ID": "48621",
    "OBJECT_NAME": "HAIYANG 2D",
    "OBJECT_TYPE": "PAYLOAD",
    "CLASSIFICATION_TYPE": "U",
    "INTLDES": "21043A",
    "EPOCH": "2023-09-25 12:05:46",
    "EPOCH_MICROSECONDS": "101120",
    "MEAN_MOTION": "13.83375009",
    "ECCENTRICITY": "0.0007565",
    "INCLINATION": "65.9958",
    "RA_OF_ASC_NODE": "263.6063",
    "ARG_OF_PERICENTER": "270.0011",
    "MEAN_ANOMALY": "90.0191",
    "EPHEMERIS_TYPE": "0",
    "ELEMENT_SET_NO": "999",
    "REV_AT_EPOCH": "11882",
    "BSTAR": "0.000091806",
    "MEAN_MOTION_DOT": "0.0000002",
    "MEAN_MOTION_DDOT": "0",
    "FILE": "4016340",
    "TLE_LINE0": "0 HAIYANG 2D",
    "TLE_LINE1": "1 48621U 21043A   23268.50400580  .00000020  00000-0  91806-4 0  9994",
    "TLE_LINE2": "2 48621  65.9958 263.6063 0007565 270.0011  90.0191 13.83375009118824",
    "OBJECT_ID": "2021-043A",
    "OBJECT_NUMBER": "48621",
    "SEMIMAJOR_AXIS": "7330.077",
    "PERIOD": "104.093",
    "APOGEE": "957.488",
    "PERIGEE": "946.397",
    "DECAYED": "0"
  },
  {
    "COMMENT": "GENERATED VIA SPACETRACK.ORG API",
    "ORIGINATOR": "18 SPCS",
    "NORAD_CAT_ID": "48621",
    "OBJECT_NAME": "HAIYANG 2D",
    "OBJECT_TYPE": "PAYLOAD",
    "CLASSIFICATION_TYPE": "U",
    "INTLDES": "21043A",
    "EPOCH": "2023-09-25 19:02:11",
    "EPOCH_MICROSECONDS": "146848",
    "MEAN_MOTION": "13.83375096",
    "ECCENTRICITY": "0.0007571",
    "INCLINATION": "65.9958",
    "RA_OF_ASC_NODE": "262.8863",
    "ARG_OF_PERICENTER": "270.0215",
    "MEAN_ANOMALY": "89.9985",
    "EPHEMERIS_TYPE": "0",
    "ELEMENT_SET_NO": "999",
    "REV_AT_EPOCH": "11890",
    "BSTAR": "0.000094175",
    "MEAN_MOTION_DOT": "0.00000022",
    "MEAN_MOTION_DDOT": "0",
    "FILE": "4016674",
    "TLE_LINE0": "0 HAIYANG 2D",
    "TLE_LINE1": "1 48621U 21043A   23268.79318457  .00000022  00000-0  94175-4 0  9990",
    "TLE_LINE2": "2 48621  65.9958 262.8863 0007571 270.0215  89.9985 13.83375096118909",
    "OBJECT_ID": "2021-043A",
    "OBJECT_NUMBER": "48621",
    "SEMIMAJOR_AXIS": "7330.077",
    "PERIOD": "104.093",
    "APOGEE": "957.492",
    "PERIGEE": "946.392",
    "DECAYED": "0"
  },
  {
    "COMMENT": "GENERATED VIA SPACETRACK.ORG API",
    "ORIGINATOR": "18 SPCS",
    "NORAD_CAT_ID": "48621",
    "OBJECT_NAME": "HAIYANG 2D",
    "OBJECT_TYPE": "PAYLOAD",
    "CLASSIFICATION_TYPE": "U",
    "INTLDES": "21043A",
    "EPOCH": "2023-09-25 22:30:23",
    "EPOCH_MICROSECONDS": "671008",
    "MEAN_MOTION": "13.83375133",
    "ECCENTRICITY": "0.0007566",
    "INCLINATION": "65.9958",
    "RA_OF_ASC_NODE": "262.5263",
    "ARG_OF_PERICENTER": "270.0705",
    "MEAN_ANOMALY": "89.9497",
    "EPHEMERIS_TYPE": "0",
    "ELEMENT_SET_NO": "999",
    "REV_AT_EPOCH": "11888",
    "BSTAR": "0.000095797",
    "MEAN_MOTION_DOT": "0.00000024",
    "MEAN_MOTION_DDOT": "0",
    "FILE": "4016730",
    "TLE_LINE0": "0 HAIYANG 2D",
    "TLE_LINE1": "1 48621U 21043A   23268.93777397  .00000024  00000-0  95797-4 0  9991",
    "TLE_LINE2": "2 48621  65.9958 262.5263 0007566 270.0705  89.9497 13.83375133118885",
    "OBJECT_ID": "2021-043A",
    "OBJECT_NUMBER": "48621",
    "SEMIMAJOR_AXIS": "7330.077",
    "PERIOD": "104.093",
    "APOGEE": "957.488",
    "PERIGEE": "946.396",
    "DECAYED": "0"
  },
  {
    "COMMENT": "GENERATED VIA SPACETRACK.ORG API",
    "ORIGINATOR": "18 SPCS",
    "NORAD_CAT_ID": "48621",
    "OBJECT_NAME": "HAIYANG 2D",
    "OBJECT_TYPE": "PAYLOAD",
    "CLASSIFICATION_TYPE": "U",
    "INTLDES": "21043A",
    "EPOCH": "2023-09-26 05:26:48",
    "EPOCH_MICROSECONDS": "715872",
    "MEAN_MOTION": "13.83375183",
    "ECCENTRICITY": "0.0007573",
    "INCLINATION": "65.9958",
    "RA_OF_ASC_NODE": "261.8062",
    "ARG_OF_PERICENTER": "270.0425",
    "MEAN_ANOMALY": "89.9775",
    "EPHEMERIS_TYPE": "0",
    "ELEMENT_SET_NO": "999",
    "REV_AT_EPOCH": "11896",
    "BSTAR": "0.000095122",
    "MEAN_MOTION_DOT": "0.00000023",
    "MEAN_MOTION_DDOT": "0",
    "FILE": "4016977",
    "TLE_LINE0": "0 HAIYANG 2D",
    "TLE_LINE1": "1 48621U 21043A   23269.22695273  .00000023  00000-0  95122-4 0  9997",
    "TLE_LINE2": "2 48621  65.9958 261.8062 0007573 270.0425  89.9775 13.83375183118964",
    "OBJECT_ID": "2021-043A",
    "OBJECT_NUMBER": "48621",
    "SEMIMAJOR_AXIS": "7330.077",
    "PERIOD": "104.093",
    "APOGEE": "957.493",
    "PERIGEE": "946.391",
    "DECAYED": "0"
  },
  {
    "COMMENT": "GENERATED VIA SPACETRACK.ORG API",
    "ORIGINATOR": "18 SPCS",
    "NORAD_CAT_ID": "48621",
    "OBJECT_NAME": "HAIYANG 2D",
    "OBJECT_TYPE": "PAYLOAD",
    "CLASSIFICATION_TYPE": "U",
    "INTLDES": "21043A",
    "EPOCH": "2023-09-26 12:23:13",
    "EPOCH_MICROSECONDS": "761600",
    "MEAN_MOTION": "13.83375267",
    "ECCENTRICITY": "0.0007569",
    "INCLINATION": "65.9958",
    "RA_OF_ASC_NODE": "261.0862",
    "ARG_OF_PERICENTER": "270.1445",
    "MEAN_ANOMALY": "89.8756",
    "EPHEMERIS_TYPE": "0",
    "ELEMENT_SET_NO": "999",
    "REV_AT_EPOCH": "11900",
    "BSTAR": "0.000097546",
    "MEAN_MOTION_DOT": "0.00000026",
    "MEAN_MOTION_DDOT": "0",
    "FILE": "4017242",
    "TLE_LINE0": "0 HAIYANG 2D",
    "TLE_LINE1": "1 48621U 21043A   23269.51613150  .00000026  00000-0  97546-4 0  9998",
    "TLE_LINE2": "2 48621  65.9958 261.0862 0007569 270.1445  89.8756 13.83375267119009",
    "OBJECT_ID": "2021-043A",
    "OBJECT_NUMBER": "48621",
    "SEMIMAJOR_AXIS": "7330.076",
    "PERIOD": "104.093",
    "APOGEE": "957.490",
    "PERIGEE": "946.393",
    "DECAYED": "0"
  },
  {
    "COMMENT": "GENERATED VIA SPACETRACK.ORG API",
    "ORIGINATOR": "18 SPCS",
    "NORAD_CAT_ID": "48621",
    "OBJECT_NAME": "HAIYANG 2D",
    "OBJECT_TYPE": "PAYLOAD",
    "CLASSIFICATION_TYPE": "U",
    "INTLDES": "21043A",
    "EPOCH": "2023-09-26 14:07:20",
    "EPOCH_MICROSECONDS": "21088",
    "MEAN_MOTION": "13.83375287",
    "ECCENTRICITY": "0.000757",
    "INCLINATION": "65.9959",
    "RA_OF_ASC_NODE": "260.9062",
    "ARG_OF_PERICENTER": "270.1543",
    "MEAN_ANOMALY": "89.8658",
    "EPHEMERIS_TYPE": "0",
    "ELEMENT_SET_NO": "999",
    "REV_AT_EPOCH": "11897",
    "BSTAR": "0.000096116",
    "MEAN_MOTION_DOT": "0.00000025",
    "MEAN_MOTION_DDOT": "0",
    "FILE": "4017272",
    "TLE_LINE0": "0 HAIYANG 2D",
    "TLE_LINE1": "1 48621U 21043A   23269.58842617  .00000025  00000-0  96116-4 0  9998",
    "TLE_LINE2": "2 48621  65.9959 260.9062 0007570 270.1543  89.8658 13.83375287118979",
    "OBJECT_ID": "2021-043A",
    "OBJECT_NUMBER": "48621",
    "SEMIMAJOR_AXIS": "7330.076",
    "PERIOD": "104.093",
    "APOGEE": "957.490",
    "PERIGEE": "946.392",
    "DECAYED": "0"
  },
  {
    "COMMENT": "GENERATED VIA SPACETRACK.ORG API",
    "ORIGINATOR": "18 SPCS",
    "NORAD_CAT_ID": "48621",
    "OBJECT_NAME": "HAIYANG 2D",
    "OBJECT_TYPE": "PAYLOAD",
    "CLASSIFICATION_TYPE": "U",
    "INTLDES": "21043A",
    "EPOCH": "2023-09-26 19:19:38",
    "EPOCH_MICROSECONDS": "805600",
    "MEAN_MOTION": "13.83375337",
    "ECCENTRICITY": "0.0007572",
    "INCLINATION": "65.9959",
    "RA_OF_ASC_NODE": "260.3662",
    "ARG_OF_PERICENTER": "270.2067",
    "MEAN_ANOMALY": "89.8134",
    "EPHEMERIS_TYPE": "0",
    "ELEMENT_SET_NO": "999",
    "REV_AT_EPOCH": "11904",
    "BSTAR": "0.000097564",
    "MEAN_MOTION_DOT": "0.00000026",
    "MEAN_MOTION_DDOT": "0",
    "FILE": "4017541",
    "TLE_LINE0": "0 HAIYANG 2D",
    "TLE_LINE1": "1 48621U 21043A   23269.80531025  .00000026  00000-0  97564-4 0  9990",
    "TLE_LINE2": "2 48621  65.9959 260.3662 0007572 270.2067  89.8134 13.83375337119047",
    "OBJECT_ID": "2021-043A",
    "OBJECT_NUMBER": "48621",
    "SEMIMAJOR_AXIS": "7330.076",
    "PERIOD": "104.093",
    "APOGEE": "957.492",
    "PERIGEE": "946.391",
    "DECAYED": "0"
  },
  {
    "COMMENT": "GENERATED VIA SPACETRACK.ORG API",
    "ORIGINATOR": "18 SPCS",
    "NORAD_CAT_ID": "48621",
    "OBJECT_NAME": "HAIYANG 2D",
    "OBJECT_TYPE": "PAYLOAD",
    "CLASSIFICATION_TYPE": "U",
    "INTLDES": "21043A",
    "EPOCH": "2023-09-26 21:03:45",
    "EPOCH_MICROSECONDS": "67680",
    "MEAN_MOTION": "13.8337535",
    "ECCENTRICITY": "0.000757",
    "INCLINATION": "65.9959",
    "RA_OF_ASC_NODE": "260.1862",
    "ARG_OF_PERICENTER": "270.2301",
    "MEAN_ANOMALY": "89.79",
    "EPHEMERIS_TYPE": "0",
    "ELEMENT_SET_NO": "999",
    "REV_AT_EPOCH": "11901",
    "BSTAR": "0.000097263",
    "MEAN_MOTION_DOT": "0.00000026",
    "MEAN_MOTION_DDOT": "0",
    "FILE": "4017567",
    "TLE_LINE0": "0 HAIYANG 2D",
    "TLE_LINE1": "1 48621U 21043A   23269.87760495  .00000026  00000-0  97263-4 0  9998",
    "TLE_LINE2": "2 48621  65.9959 260.1862 0007570 270.2301  89.7900 13.83375350119018",
    "OBJECT_ID": "2021-043A",
    "OBJECT_NUMBER": "48621",
    "SEMIMAJOR_AXIS": "7330.076",
    "PERIOD": "104.093",
    "APOGEE": "957.490",
    "PERIGEE": "946.392",
    "DECAYED": "0"
  }
]